[{"OBJECT_NAME":"STARLINK-30487","OBJECT_ID":"2023-147M","EPOCH":"2026-03-09T01:08:00.996864","MEAN_MOTION":15.02542965,"ECCENTRICITY":4.95e-6,"INCLINATION":43.0054,"RA_OF_ASC_NODE":329.332,"ARG_OF_PERICENTER":222.8366,"MEAN_ANOMALY":137.2472,"EPHEMERIS_TYPE":0,"CLASSIFICATION_TYPE":"U","NORAD_CAT_ID":57924,"ELEMENT_SET_NO":999,"REV_AT_EPOCH":13652,"BSTAR":8.0172178e-5,"MEAN_MOTION_DOT":8.8e-6,"MEAN_MOTION_DDOT":0},{"OBJECT_NAME":"SL-3 DEB","OBJECT_ID":"1988-032C","EPOCH":"2026-03-09T20:54:05.348736","MEAN_MOTION":15.06065434,"ECCENTRICITY":0.00240661,"INCLINATION":97.6252,"RA_OF_ASC_NODE":41.5186,"ARG_OF_PERICENTER":162.4496,"MEAN_ANOMALY":255.7854,"EPHEMERIS_TYPE":0,"CLASSIFICATION_TYPE":"U","NORAD_CAT_ID":24893,"ELEMENT_SET_NO":999,"REV_AT_EPOCH":81391,"BSTAR":0.00022425917,"MEAN_MOTION_DOT":3.232e-5,"MEAN_MOTION_DDOT":0}]
